INTELSAT 902 (IS-902)   
1 26900U 01039A   26177.51319096 -.00000278  00000+0  00000+0 0  9993
2 26900   6.1398  71.6700 0004220  23.8154 313.7960  1.00271559 90781
INTELSAT 904 (IS-904)   
1 27380U 02007A   26177.40778127 -.00000221  00000+0  00000+0 0  9992
2 27380   6.9427  69.0758 0006533  10.6586 310.1094  1.00273175 51851
DIRECTV 5 (TEMPO 1)     
1 27426U 02023A   26177.71508889 -.00000050  00000+0  00000+0 0  9991
2 27426   4.9018  75.1958 0003523  23.9670 323.0023  1.00271415 88213
INTELSAT 905 (IS-905)   
1 27438U 02027A   26177.51364118  .00000098  00000+0  00000+0 0  9992
2 27438   6.7766  69.6900 0004130  26.2584 226.3896  1.00271841 51458
GALAXY 3C (G-3C)        
1 27445U 02030A   26177.57556811 -.00000145  00000+0  00000+0 0  9997
2 27445   3.7566  77.8583 0001951  25.1111 284.0946  1.00272391 46587
INTELSAT 906 (IS-906)   
1 27513U 02041A   26177.17934618  .00000018  00000+0  00000+0 0  9994
2 27513   5.8247  72.8110 0004227   6.8820 323.3205  1.00272027 87110
GALAXY 13 (HORIZONS-1)  
1 27954U 03044A   26177.70720218  .00000143  00000+0  00000+0 0  9994
2 27954   1.4432  83.7437 0001722   3.2702 292.3982  1.00269626 46660
INTELSAT 10-02          
1 28358U 04022A   26177.38030189  .00000000  00000+0  00000+0 0  9997
2 28358   0.0291 283.7274 0000141 174.6547 312.0308  1.00270205 80645
DIRECTV 8               
1 28659U 05019A   26177.57080142  .00000012  00000+0  00000+0 0  9996
2 28659   0.0207  68.0631 0003281  30.9102 262.1588  1.00271674 77165
GALAXY 28 (G-28)        
1 28702U 05022A   26177.44642265 -.00000192  00000+0  00000+0 0  9995
2 28702   3.3216  78.8201 0002292  15.6162 313.7490  1.00271144 52068
GALAXY 16 (G-16)        
1 29236U 06023A   26177.64600779 -.00000115  00000+0  00000+0 0  9991
2 29236   0.0429 127.0475 0002877 316.8293 324.4423  1.00272111 73064
DIRECTV 9S              
1 29494U 06043A   26177.64557443 -.00000104  00000+0  00000+0 0  9996
2 29494   2.4450  80.7982 0005401  18.5259 306.6478  1.00271875 51471
GALAXY 17 (G-17)        
1 31307U 07016B   26177.64878112 -.00000198  00000+0  00000+0 0  9995
2 31307   2.9957  79.7882 0004581  19.4645 324.0688  1.00271339 69895
INTELSAT 11 (IS-11)     
1 32253U 07044B   26177.61109825  .00000025  00000+0  00000+0 0  9990
2 32253   3.5897  78.5623 0003043  84.2967  56.2548  0.99047833 68542
HORIZONS-2              
1 32388U 07063B   26177.57972814 -.00000244  00000+0  00000+0 0  9995
2 32388   2.6260  80.5180 0004157   6.1222 322.9630  1.00271416 67903
DIRECTV 11              
1 32729U 08013A   26177.64600779 -.00000114  00000+0  00000+0 0  9992
2 32729   0.0095 299.9207 0000321 118.2566 349.9641  1.00269115 45686
GALAXY 18 (G-18)        
1 32951U 08024A   26177.71257553  .00000000  00000+0  00000+0 0  9990
2 32951   0.0253  16.8951 0003242  82.3493 309.1220  1.00269871 45945
GALAXY 19 (G-19)        
1 33376U 08045A   26177.57513477 -.00000128  00000+0  00000+0 0  9991
2 33376   0.0430 260.8617 0002899 203.0776 280.8068  1.00271325 64995
FM-5                    
1 35493U 09034A   26177.64860779 -.00000189  00000+0  00000+0 0  9997
2 35493   0.0256 288.7858 0000916  58.0182  75.3009  1.00272323 46739
INTELSAT 14 (IS-14)     
1 36097U 09064A   26177.72803811 -.00000262  00000+0  00000+0 0  9996
2 36097   0.0171  19.2651 0002682  75.7845  36.8942  1.00272552 60703
INTELSAT 15 (IS-15)     
1 36106U 09067A   26177.68248691 -.00000174  00000+0  00000+0 0  9996
2 36106   0.0130  44.2833 0002538  55.2540 146.1115  1.00271569 41325
DIRECTV 12              
1 36131U 09075A   26177.64531443 -.00000092  00000+0  00000+0 0  9998
2 36131   0.0128 115.6828 0000393 358.9902 289.6826  1.00272695 46642
INTELSAT 16 (IS-16)     
1 36397U 10006A   26177.50799094 -.00000233  00000+0  00000+0 0  9998
2 36397   0.0122  33.0683 0002392  75.7383 272.4998  1.00272413 59743
XM-5                    
1 37185U 10053A   26177.71413553 -.00000011  00000+0  00000+0 0  9996
2 37185   0.0654 271.5186 0002380 284.8113 220.3967  1.00269780 57577
INTELSAT 17 (IS-17)     
1 37238U 10065B   26177.67876023  .00000010  00000+0  00000+0 0  9996
2 37238   0.0103  73.8113 0002444  21.3416 129.9986  1.00271895 53345
INTELSAT 28 (IS-28)     
1 37392U 11016A   26177.73063811 -.00000215  00000+0  00000+0 0  9992
2 37392   1.8307  82.5156 0004026  12.0785  51.5541  1.00271613 53388
INTELSAT 18 (IS-18)     
1 37834U 11056A   26177.55871939  .00000064  00000+0  00000+0 0  9996
2 37834   0.0147 300.6858 0002073 158.6739 196.4534  1.00273052 53909
INTELSAT 22 (IS-22)     
1 38098U 12011A   26177.53737831  .00000000  00000+0  00000+0 0  9991
2 38098   0.0373  54.3281 0001803  75.1302  50.7659  1.00270707  7289
INTELSAT 19 (IS-19)     
1 38356U 12030A   26177.69853546 -.00000045  00000+0  00000+0 0  9998
2 38356   0.0168  16.9508 0003337  84.2525 231.0926  1.00271300 50544
INTELSAT 20 (IS-20)     
1 38740U 12043A   26177.53651163  .00000000  00000+0  00000+0 0  9993
2 38740   0.0380  69.0281 0002197 114.0266 353.2462  1.00270498 50843
INTELSAT 21 (IS-21)     
1 38749U 12045A   26177.72531559 -.00000273  00000+0  00000+0 0  9994
2 38749   0.0251  69.6956 0001830  37.7286  10.5359  1.00271774 50622
